[{"OBJECT_NAME":"PROX-1","OBJECT_ID":"2019-036A","EPOCH":"2026-03-09T07:09:12.569760","MEAN_MOTION":14.88035821,"ECCENTRICITY":0.00059437,"INCLINATION":23.996,"RA_OF_ASC_NODE":60.2166,"ARG_OF_PERICENTER":316.0132,"MEAN_ANOMALY":43.9894,"EPHEMERIS_TYPE":0,"CLASSIFICATION_TYPE":"U","NORAD_CAT_ID":44339,"ELEMENT_SET_NO":999,"REV_AT_EPOCH":35856,"BSTAR":0.0016494935,"MEAN_MOTION_DOT":0.00015817,"MEAN_MOTION_DDOT":0},{"OBJECT_NAME":"PEGASUS DEB","OBJECT_ID":"1994-029CY","EPOCH":"2026-03-09T05:13:06.117888","MEAN_MOTION":14.31816092,"ECCENTRICITY":0.03405003,"INCLINATION":81.2891,"RA_OF_ASC_NODE":137.9762,"ARG_OF_PERICENTER":84.6876,"MEAN_ANOMALY":331.5571,"EPHEMERIS_TYPE":0,"CLASSIFICATION_TYPE":"U","NORAD_CAT_ID":24051,"ELEMENT_SET_NO":999,"REV_AT_EPOCH":50238,"BSTAR":0.0015079585,"MEAN_MOTION_DOT":7.708e-5,"MEAN_MOTION_DDOT":0}]
